{
    "links": {
        "self": "http://www.neowsapp.com/rest/v1/neo/54054652?api_key=iIulBulltgU6a56xZRHN4H3l9WmuAYTsLGpBGhQ2"
    },
    "id": "54054652",
    "neo_reference_id": "54054652",
    "name": "(2020 SA5)",
    "designation": "2020 SA5",
    "nasa_jpl_url": "http://ssd.jpl.nasa.gov/sbdb.cgi?sstr=54054652",
    "absolute_magnitude_h": 25.29,
    "estimated_diameter": {
        "kilometers": {
            "estimated_diameter_min": 0.0232570687,
            "estimated_diameter_max": 0.0520043867
        },
        "meters": {
            "estimated_diameter_min": 23.2570687455,
            "estimated_diameter_max": 52.0043866724
        },
        "miles": {
            "estimated_diameter_min": 0.0144512681,
            "estimated_diameter_max": 0.0323140178
        },
        "feet": {
            "estimated_diameter_min": 76.3027214231,
            "estimated_diameter_max": 170.6180719704
        }
    },
    "is_potentially_hazardous_asteroid": false,
    "close_approach_data": [
        {
            "close_approach_date": "2020-09-21",
            "close_approach_date_full": "2020-Sep-21 08:21",
            "epoch_date_close_approach": 1600676460000,
            "relative_velocity": {
                "kilometers_per_second": "17.3870900679",
                "kilometers_per_hour": "62593.5242444677",
                "miles_per_hour": "38893.1817729027"
            },
            "miss_distance": {
                "astronomical": "0.014071315",
                "lunar": "5.473741535",
                "kilometers": "2105038.75209905",
                "miles": "1308010.42730489"
            },
            "orbiting_body": "Earth"
        },
        {
            "close_approach_date": "2020-11-02",
            "close_approach_date_full": "2020-Nov-02 08:57",
            "epoch_date_close_approach": 1604307420000,
            "relative_velocity": {
                "kilometers_per_second": "16.5870707151",
                "kilometers_per_hour": "59713.4545742585",
                "miles_per_hour": "37103.6184825441"
            },
            "miss_distance": {
                "astronomical": "0.0373176832",
                "lunar": "14.5165787648",
                "kilometers": "5582645.920054784",
                "miles": "3468895.3199086592"
            },
            "orbiting_body": "Mars"
        },
        {
            "close_approach_date": "2026-04-06",
            "close_approach_date_full": "2026-Apr-06 04:10",
            "epoch_date_close_approach": 1775448600000,
            "relative_velocity": {
                "kilometers_per_second": "6.5217035824",
                "kilometers_per_hour": "23478.1328965365",
                "miles_per_hour": "14588.3987434062"
            },
            "miss_distance": {
                "astronomical": "1.3968170003",
                "lunar": "543.3618131167",
                "kilometers": "208960848.024669361",
                "miles": "129842250.0973887418"
            },
            "orbiting_body": "Juptr"
        }
    ],
    "orbital_data": {
        "orbit_id": "2",
        "orbit_determination_date": "2020-09-27 06:55:31",
        "first_observation_date": "2020-09-24",
        "last_observation_date": "2020-09-27",
        "data_arc_in_days": 3,
        "observations_used": 32,
        "orbit_uncertainty": "8",
        "minimum_orbit_intersection": ".00990499",
        "jupiter_tisserand_invariant": "3.065",
        "epoch_osculation": "2459117.5",
        "eccentricity": ".6915825004440695",
        "semi_major_axis": "2.527508094756291",
        "inclination": "1.942150549542393",
        "ascending_node_longitude": "160.8309444148792",
        "orbital_period": "1467.699883015778",
        "perihelion_distance": ".779527726692109",
        "perihelion_argument": "133.8968964606819",
        "aphelion_distance": "4.275488462820473",
        "perihelion_time": "2459073.177485712181",
        "mean_anomaly": "10.8715039963271",
        "mean_motion": ".2452817528746305",
        "equinox": "J2000",
        "orbit_class": {
            "orbit_class_type": "APO",
            "orbit_class_description": "Near-Earth asteroid orbits which cross the Earth’s orbit similar to that of 1862 Apollo",
            "orbit_class_range": "a (semi-major axis) > 1.0 AU; q (perihelion) < 1.017 AU"
        }
    },
    "is_sentry_object": false
}